satname,norad_id,inclination_deg,eccentricity,mean_motion_rev_per_day,perigee_km,apogee_km,l1,l2
STARLINK-1555,46032,53.0576,0.0001408,15.06412106,546.1993711874693,548.149538893209,1 46032U 20055F   26052.63240458 -.00000616  00000+0 -22428-4 0  9990,2 46032  53.0576 198.6989 0001408 103.5311 256.5835 15.06412106306470
STARLINK-1556,46033,53.0576,0.0001507,15.06401195,546.164245962068,548.2515449135535,1 46033U 20055G   26052.68032015  .00000803  00000+0  72806-4 0  9995,2 46033  53.0576 198.4869 0001507 108.0226 252.0928 15.06401195306459
STARLINK-1557,46034,53.0576,0.0001262,15.064011,546.334208036209,548.082165161306,1 46034U 20055H   26052.61765940  .00000583  00000+0  58014-4 0  9999,2 46034  53.0576 198.7702 0001262  90.4283 269.6850 15.06401100306447
STARLINK-1558,46035,53.0575,0.0001364,15.06393009,546.2883639633774,548.1776048951288,1 46035U 20055J   26052.69139310 -.00002158  00000+0 -12607-3 0  9993,2 46035  53.0575 198.4319 0001364  95.4541 264.6604 15.06393009306487
STARLINK-1560,46036,53.0559,0.0001221,15.06394415,546.3830880628329,548.0742623607193,1 46036U 20055K   26052.67664200 -.00000001  00000+0  18819-4 0  9999,2 46036  53.0559 198.5060 0001221  70.9906 289.1215 15.06394415306481
STARLINK-1567,46038,53.0573,0.0001264,15.0639566,546.349493706105,548.1002251841728,1 46038U 20055M   26052.68771073 -.00000122  00000+0  10703-4 0  9997,2 46038  53.0573 198.4521 0001264  98.3388 261.7744 15.06395660306470
STARLINK-1569,46039,53.0557,0.0001414,15.0639952,546.2337845754246,548.1922735636454,1 46039U 20055N   26052.62871931 -.00000587  00000+0 -20490-4 0  9996,2 46039  53.0557 198.7179 0001414  99.4766 260.6383 15.06399520306469
STARLINK-1582,46043,53.0568,0.0001485,15.06416393,546.1329094099638,548.1897230098793,1 46043U 20055S   26052.76878339  .00002950  00000+0  21676-3 0  9995,2 46043  53.0568 198.0866 0001485  60.2597 299.8539 15.06416393306485
STARLINK-1591,46045,53.0561,0.0001267,15.06405346,546.3177336803456,548.0726128530514,1 46045U 20055U   26052.66189569  .00001765  00000+0  13731-3 0  9992,2 46045  53.0561 198.5704 0001267  82.3339 277.7794 15.06405346306454
STARLINK-1524,46047,53.123,0.000183,15.22185961,497.9899051375078,500.50702821831237,1 46047U 20055W   26052.91668981  .01295955  00000+0  50787-1 0  9999,2 46047  53.1230 186.9049 0001830  83.9009  41.5920 15.22185961  5786
STARLINK-1527,46048,53.1186,0.000137,15.21290025,501.0058371221785,502.8909805241965,1 46048U 20055X   26052.91668981  .01476445  00000+0  59568-1 0  9991,2 46048  53.1186 187.0225 0001370  66.2602  15.0906 15.21290025  5830
STARLINK-1540,46051,53.1207,4e-05,15.21708024,500.41326792698055,500.9635739606565,1 46051U 20055AA  26052.91668981  .01200649  00000+0  48039-1 0  9997,2 46051  53.1207 186.9029 0000400 136.3771 190.4199 15.21708024  5786
STARLINK-1541,46052,53.114,0.0001045,15.20566018,503.4129751638484,504.8513694208559,1 46052U 20055AB  26052.91668981  .00053918  00000+0  24285-2 0  9990,2 46052  53.1140 186.8195 0001045  80.1399  13.6601 15.20566018  5782
STARLINK-1543,46053,53.1176,0.0001569,15.20883484,502.09473434107986,504.25408986219736,1 46053U 20055AC  26052.91668981  .00753001  00000+0  31226-1 0  9993,2 46053  53.1176 186.9391 0001569  84.7158 282.6501 15.20883484  5635
STARLINK-1548,46054,53.1168,5.97e-05,15.21166902,501.9088892107957,502.7304157351009,1 46054U 20055AD  26052.91668981  .00078252  00000+0  34452-2 0  9997,2 46054  53.1168 186.9196 0000597 127.1805 210.9957 15.21166902  5786
STARLINK-1554,46055,53.11,0.0001025,15.19731798,505.94482130581673,507.35620274578196,1 46055U 20055AE  26052.91668981  .00076166  00000+0  34979-2 0  9994,2 46055  53.1100 186.9514 0001025  58.0596 342.1158 15.19731798  5782
STARLINK-1564,46058,53.1168,9.82e-05,15.20649293,503.20509432643485,504.5567226436615,1 46058U 20055AH  26052.91668981  .00794350  00000+0  33025-1 0  9999,2 46058  53.1168 187.3982 0000982 106.2846 242.9280 15.20649293  5837
STARLINK-1570,46059,53.1202,0.000147,15.21621697,499.93736635718597,501.959817521215,1 46059U 20055AJ  26052.91668981  .01474480  00000+0  58925-1 0  9996,2 46059  53.1202 187.0129 0001470 102.7754  44.2707 15.21621697  5824
STARLINK-1572,46060,53.1098,0.0001651,15.19755366,505.442666758041,507.7160000913391,1 46060U 20055AK  26052.91668981  .00076393  00000+0  35057-2 0  9990,2 46060  53.1098 187.0054 0001651  82.4283  88.3892 15.19755366  5785
STARLINK-1573,46061,53.1219,0.0001277,15.22217288,498.27587924914405,500.0323393984654,1 46061U 20055AL  26052.91668981  .01309528  00000+0  51959-1 0  9999,2 46061  53.1219 187.0017 0001277 110.9249 102.3879 15.22217288  5785
STARLINK-1577,46063,53.1235,0.0001268,15.22420255,497.67088533175684,499.4148113412957,1 46063U 20055AN  26052.91668981  .01449382  00000+0  56671-1 0  9990,2 46063  53.1235 186.9497 0001268  65.6548  15.7892 15.22420255  5785
STARLINK-1583,46064,53.1221,0.0001171,15.22357548,497.9264026361734,499.5369652819563,1 46064U 20055AP  26052.91668981  .01405762  00000+0  55216-1 0  9999,2 46064  53.1221 186.9657 0001171 133.4282 119.3231 15.22357548  5839
STARLINK-1525,46066,53.056,0.0001812,15.06412925,545.917078977227,548.4268109388804,1 46066U 20055AR  26052.71626293  .00001818  00000+0  14088-3 0  9996,2 46066  53.0560 168.3231 0001812  60.4703 299.6466 15.06412925306892
STARLINK-1536,46070,53.0562,0.0001382,15.0639779,546.2612471714774,548.1754153850434,1 46070U 20055AV  26052.69414707  .00000018  00000+0  20074-4 0  9997,2 46070  53.0562 168.4240 0001382  95.2640 264.8507 15.06397790306902
STARLINK-1542,46073,53.0561,0.0001402,15.06396515,546.2513036166329,548.1931743472423,1 46073U 20055AY  26052.48773073  .00002792  00000+0  20631-3 0  9990,2 46073  53.0561 169.3501 0001402 101.3847 258.7300 15.06396515306867
STARLINK-1549,46074,53.0573,0.0001359,15.06399219,546.2727963975049,548.1551067861483,1 46074U 20055AZ  26052.60568024 -.00001864  00000+0 -10626-3 0  9997,2 46074  53.0573 168.8163 0001359 112.2010 247.9123 15.06399219306871
STARLINK-1551,46075,53.0562,0.0001535,15.06390832,546.1766113635513,548.3027019971514,1 46075U 20055BA  26052.69782784  .00002038  00000+0  15572-3 0  9995,2 46075  53.0562 168.3999 0001535 106.7590 253.3567 15.06390832306896
STARLINK-1552,46076,53.0564,0.0001369,15.06401018,546.2603581262028,548.1565177071043,1 46076U 20055BB  26052.59092898  .00002757  00000+0  20390-3 0  9997,2 46076  53.0564 168.8895 0001369  98.9698 261.1446 15.06401018306864
